NORAD_CAT_ID,OBJECT_NAME,OBJECT_TYPE,EPOCH,MEAN_MOTION,ECCENTRICITY,INCLINATION,RA_OF_ASC_NODE,ARG_OF_PERICENTER,MEAN_ANOMALY,BSTAR,MEAN_MOTION_DOT,MEAN_MOTION_DDOT,TLE_LINE0,TLE_LINE1,TLE_LINE2,SEMIMAJOR_AXIS,PERIOD,APOGEE,PERIGEE,DECAYED
53711.0,STARLINK-4627,PAYLOAD,2023-01-21 14:00:01,15.08840573,0.0001746,53.2194,340.532,51.7174,44.7127,-0.00091167,-0.00014768,0.0,0 STARLINK-4627,1 53711U 22107M   23021.58334491 -.00014768  00000-0 -91167-3 0  9999,2 53711  53.2194 340.5320 0001746  51.7174  44.7127 15.08840573 21462,6917.879,95.438,540.951,538.536,0.0
53711.0,STARLINK-4627,PAYLOAD,2023-01-22 06:00:00,15.08840868,0.0001648,53.2196,337.5407,60.2226,59.4193,-0.0023455999999999,-0.00037426,0.0,0 STARLINK-4627,1 53711U 22107M   23022.25001157 -.00037426  00000-0 -23456-2 0  9995,2 53711  53.2196 337.5407 0001648  60.2226  59.4193 15.08840868 21564,6917.878000000001,95.437,540.883,538.6030000000001,0.0
53711.0,STARLINK-4627,PAYLOAD,2023-01-22 22:00:00,15.08851886,0.0001481,53.2197,334.5469,77.4369,65.3401,0.00087011,0.00013591,0.0,0 STARLINK-4627,1 53711U 22107M   23022.91667824  .00013591  00000-0  87011-3 0  9990,2 53711  53.2197 334.5469 0001481  77.4369  65.3401 15.08851886 21664,6917.844,95.437,540.734,538.685,0.0
53711.0,STARLINK-4627,PAYLOAD,2023-01-23 14:00:01,15.08810035,0.0001392,53.2192,331.5547,88.7328,77.2408,0.0014565,0.00022949,0.0,0 STARLINK-4627,1 53711U 22107M   23023.58334491  .00022949  00000-0  14565-2 0  9995,2 53711  53.2192 331.5547 0001392  88.7328  77.2408 15.08810035 21765,6917.972,95.439,540.8,538.874,0.0
53711.0,STARLINK-4627,PAYLOAD,2023-01-24 14:00:01,15.08812963,0.0001075,53.2186,327.0661,95.5482,105.1837,0.0017961,0.00028391,0.0,0 STARLINK-4627,1 53711U 22107M   23024.58334491  .00028391  00000-0  17961-2 0  9996,2 53711  53.2186 327.0661 0001075  95.5482 105.1837 15.08812963 21916,6917.963000000001,95.439,540.572,539.0840000000001,0.0
53711.0,STARLINK-4627,PAYLOAD,2023-01-25 12:57:39,15.08835823,0.0001737,53.2206,322.7687,79.3127,280.8061,0.00014089,1.955e-05,0.0,0 STARLINK-4627,1 53711U 22107M   23025.54003753  .00001955  00000-0  14089-3 0  9993,2 53711  53.2206 322.7687 0001737  79.3127 280.8061 15.08835823 22067,6917.893,95.438,540.96,538.557,0.0
53711.0,STARLINK-4627,PAYLOAD,2023-01-25 19:19:11,15.08837075,0.0001573,53.2193,321.5835,76.1103,284.0064,0.00020001,2.896e-05,0.0,0 STARLINK-4627,1 53711U 22107M   23025.80499875  .00002896  00000-0  20001-3 0  9992,2 53711  53.2193 321.5835 0001573  76.1103 284.0064 15.08837075 22544,6917.889,95.438,540.8430000000001,538.6659999999999,0.0
53711.0,STARLINK-4627,PAYLOAD,2023-01-26 01:40:44,15.08839911,0.0001176,53.2179,320.394,80.363,279.7495,0.00014398,2.004e-05,0.0,0 STARLINK-4627,1 53711U 22107M   23026.06995663  .00002004  00000-0  14398-3 0  9990,2 53711  53.2179 320.3940 0001176  80.3630 279.7495 15.08839911 22587,6917.880999999999,95.438,540.559,538.932,0.0
53711.0,STARLINK-4627,PAYLOAD,2023-01-27 04:42:16,15.08857893,0.0001564999999999,53.2206,315.3358,99.1779,260.939,0.00036503,5.529e-05,0.0,0 STARLINK-4627,1 53711U 22107M   23027.19602769  .00005529  00000-0  36503-3 0  9994,2 53711  53.2206 315.3358 0001565  99.1779 260.9390 15.08857893 22315,6917.826,95.436,540.773,538.6080000000001,0.0
53711.0,STARLINK-4627,PAYLOAD,2023-01-27 14:14:36,15.08839605,0.0001146,53.2201,313.556,108.6415,251.4702,4.5516e-05,4.37e-06,0.0,0 STARLINK-4627,1 53711U 22107M   23027.59347478  .00000437  00000-0  45516-4 0  9999,2 53711  53.2201 313.5560 0001146 108.6415 251.4702 15.08839605 22372,6917.882,95.438,540.539,538.9540000000001,0.0
53711.0,STARLINK-4627,PAYLOAD,2023-01-27 20:36:09,15.08835012,0.0001054999999999,53.2183,312.3658,71.8368,288.2739,-1.8653e-05,-5.85e-06,0.0,0 STARLINK-4627,1 53711U 22107M   23027.85843793 -.00000585  00000-0 -18653-4 0  9997,2 53711  53.2183 312.3658 0001055  71.8368 288.2739 15.08835012 22852,6917.896,95.438,540.49,539.031,0.0
53711.0,STARLINK-4627,PAYLOAD,2023-01-28 04:33:04,15.0884478,8.67e-05,53.218,310.8774,79.4311,280.6779,0.00023167,3.402e-05,0.0,0 STARLINK-4627,1 53711U 22107M   23028.18963315  .00003402  00000-0  23167-3 0  9991,2 53711  53.2180 310.8774 0000867  79.4311 280.6779 15.08844780 22901,6917.866,95.437,540.331,539.131,0.0
53711.0,STARLINK-4627,PAYLOAD,2023-01-28 20:26:55,15.08839493,8.94e-05,53.2182,307.9032,84.3936,275.7158,8.1095e-05,1.003e-05,0.0,0 STARLINK-4627,1 53711U 22107M   23028.85203585  .00001003  00000-0  81095-4 0  9991,2 53711  53.2182 307.9032 0000894  84.3936 275.7158 15.08839493 22568,6917.882,95.438,540.365,539.128,0.0
53711.0,STARLINK-4627,PAYLOAD,2023-01-29 04:23:51,15.08848558,9.55e-05,53.2182,306.4173,78.668,281.4419,0.00039998,6.085e-05,0.0,0 STARLINK-4627,1 53711U 22107M   23029.18323386  .00006085  00000-0  39998-3 0  9999,2 53711  53.2182 306.4173 0000955  78.6680 281.4419 15.08848558 22610,6917.854,95.437,540.38,539.059,0.0
53711.0,STARLINK-4627,PAYLOAD,2023-01-29 18:42:20,15.08841384,0.0001038,53.2182,303.7401,70.9779,289.1326,0.00023731,3.491e-05,0.0,0 STARLINK-4627,1 53711U 22107M   23029.77939819  .00003491  00000-0  23731-3 0  9994,2 53711  53.2182 303.7401 0001038  70.9779 289.1326 15.08841384 22703,6917.876,95.437,540.459,539.023,0.0
53711.0,STARLINK-4627,PAYLOAD,2023-01-30 04:14:38,15.08849145,8.46e-05,53.2181,301.9563,82.0779,278.0309,0.00028262,4.214e-05,0.0,0 STARLINK-4627,1 53711U 22107M   23030.17683343  .00004214  00000-0  28262-3 0  9996,2 53711  53.2181 301.9563 0000846  82.0779 278.0309 15.08849145 23208,6917.852,95.437,540.303,539.132,0.0
53711.0,STARLINK-4627,PAYLOAD,2023-01-30 21:43:53,15.0883819,9.26e-05,53.2187,298.6844,84.8952,275.2146,4.2889e-05,3.95e-06,0.0,0 STARLINK-4627,1 53711U 22107M   23030.90547876  .00000395  00000-0  42889-4 0  9995,2 53711  53.2187 298.6844 0000926  84.8952 275.2146 15.08838190 22878,6917.886,95.438,540.392,539.11,0.0
53711.0,STARLINK-4627,PAYLOAD,2023-01-31 04:05:25,15.08842316,0.0001001,53.2185,297.4963,86.0966,274.0141,0.00010745,1.423e-05,0.0,0 STARLINK-4627,1 53711U 22107M   23031.17043803  .00001423  00000-0  10745-3 0  9994,2 53711  53.2185 297.4963 0001001  86.0966 274.0141 15.08842316 23350,6917.873,95.437,540.431,539.046,0.0
53711.0,STARLINK-4627,PAYLOAD,2023-01-31 18:23:54,15.08843054,0.0001002,53.2185,294.8201,88.4795,271.6312,0.00011336,1.517e-05,0.0,0 STARLINK-4627,1 53711U 22107M   23031.76659840  .00001517  00000-0  11336-3 0  9994,2 53711  53.2185 294.8201 0001002  88.4795 271.6312 15.08843054 23446,6917.871,95.437,540.429,539.043,0.0
53711.0,STARLINK-4627,PAYLOAD,2023-02-01 03:56:12,15.08851904,0.0001018,53.2181,293.036,93.2767,266.8342,0.00029218,4.367e-05,0.0,0 STARLINK-4627,1 53711U 22107M   23032.16403444  .00004367  00000-0  29218-3 0  9990,2 53711  53.2181 293.0360 0001018  93.2767 266.8342 15.08851904 23069,6917.844,95.437,540.413,539.005,0.0
53711.0,STARLINK-4627,PAYLOAD,2023-02-02 02:11:37,15.08839764,0.0001182,53.2189,288.8697,101.1035,259.009,4.9548e-05,5.01e-06,0.0,0 STARLINK-4627,1 53711U 22107M   23033.09140048  .00000501  00000-0  49548-4 0  9996,2 53711  53.2189 288.8697 0001182 101.1035 259.0090 15.08839764 23201,6917.881,95.438,540.564,538.928,0.0
53711.0,STARLINK-4627,PAYLOAD,2023-02-03 02:02:23,15.08853324,0.0001203,53.2172,284.4127,86.8004,273.3125,0.00031627,4.751e-05,0.0,0 STARLINK-4627,1 53711U 22107M   23034.08499550  .00004751  00000-0  31627-3 0  9990,2 53711  53.2172 284.4127 0001203  86.8004 273.3125 15.08853324 23354,6917.84,95.437,540.537,538.872,0.0
53711.0,STARLINK-4627,PAYLOAD,2023-02-03 16:20:52,15.08838703,0.0001787,53.217,281.7368,80.4304,279.689,0.00010361,1.361e-05,0.0,0 STARLINK-4627,1 53711U 22107M   23034.68116415  .00001361  00000-0  10361-3 0  9998,2 53711  53.2170 281.7368 0001787  80.4304 279.6890 15.08838703 23441,6917.884,95.438,540.986,538.513,0.0
53711.0,STARLINK-4627,PAYLOAD,2023-02-04 13:00:53,15.0884818,0.0001284,53.2171,277.8717,71.0282,289.0849,0.00027194,4.044e-05,0.0,0 STARLINK-4627,1 53711U 22107M   23035.54228201  .00004044  00000-0  27194-3 0  9994,2 53711  53.2171 277.8717 0001284  71.0282 289.0849 15.08848180 24012,6917.855,95.437,540.609,538.832,0.0
53711.0,STARLINK-4627,PAYLOAD,2023-02-04 20:57:48,15.08853257,0.0001372,53.217,276.3847,72.7128,287.4014,0.00058564,9.048e-05,0.0,0 STARLINK-4627,1 53711U 22107M   23035.87348099  .00009048  00000-0  58564-3 0  9992,2 53711  53.2170 276.3847 0001372  72.7128 287.4014 15.08853257 23627,6917.84,95.437,540.654,538.756,0.0
53711.0,STARLINK-4627,PAYLOAD,2023-02-05 12:51:40,15.08838627,0.000131,53.2165,273.41,100.5823,259.5316,3.8841e-05,3.3e-06,0.0,0 STARLINK-4627,1 53711U 22107M   23036.53588117  .00000330  00000-0  38841-4 0  9995,2 53711  53.2165 273.4100 0001310 100.5823 259.5316 15.08838627 23725,6917.885,95.438,540.656,538.843,0.0
53711.0,STARLINK-4627,PAYLOAD,2023-02-05 22:23:59,15.08834676,0.0001225,53.2179,271.6269,77.4976,282.6153,0.000105,1.383e-05,0.0,0 STARLINK-4627,1 53711U 22107M   23036.93332598  .00001383  00000-0  10500-3 0  9999,2 53711  53.2179 271.6269 0001225  77.4976 282.6153 15.08834676 24224,6917.897,95.438,540.609,538.914,0.0
53711.0,STARLINK-4627,PAYLOAD,2023-02-06 20:39:22,15.08846757,0.0001161,53.2177,267.4639,83.1459,276.9665,5.0149e-05,5.11e-06,0.0,0 STARLINK-4627,1 53711U 22107M   23037.86067929  .00000511  00000-0  50149-4 0  9991,2 53711  53.2177 267.4639 0001161  83.1459 276.9665 15.08846757 23928,6917.86,95.437,540.528,538.922,0.0
53711.0,STARLINK-4627,PAYLOAD,2023-02-07 01:25:31,15.08852957,0.0001197,53.2175,266.5716,80.8828,279.23,0.00010327,1.357e-05,0.0,0 STARLINK-4627,1 53711U 22107M   23038.05939326  .00001357  00000-0  10327-3 0  9994,2 53711  53.2175 266.5716 0001197  80.8828 279.2300 15.08852957 23959,6917.841,95.437,540.534,538.878,0.0
